{"type":"Feature","geometry":{"type":"Polygon","coordinates":[[[10.0,0.0],[9.807852804032303,1.9509032201612873],[9.238795325112864,3.826834323650904],[8.314696123025453,5.555702330196022],[7.071067811865474,7.071067811865477],[5.555702330196018,8.314696123025454],[3.8268343236509,9.238795325112866],[1.950903220161283,9.807852804032304],[0.0,10.0],[-1.9509032201612866,9.807852804032303],[-3.8268343236509033,9.238795325112864],[-5.555702330196022,8.314696123025453],[-7.071067811865477,7.071067811865475],[-8.314696123025454,5.55570233019602],[-9.238795325112868,3.8268343236508966],[-9.807852804032304,1.9509032201612837],[-10.0,0.0],[-9.807852804032304,-1.9509032201612861],[-9.238795325112868,-3.826834323650899],[-8.314696123025453,-5.555702330196022],[-7.071067811865475,-7.0710678118654755],[-5.55570233019602,-8.314696123025454],[-3.826834323650897,-9.238795325112868],[-1.950903220161282,-9.807852804032304],[0.0,-10.0],[1.9509032201612833,-9.807852804032304],[3.8268343236508984,-9.238795325112868],[5.555702330196023,-8.314696123025453],[7.0710678118654755,-7.071067811865475],[8.314696123025453,-5.555702330196022],[9.238795325112868,-3.826834323650898],[9.807852804032304,-1.9509032201612824],[10.0,0.0]]]},"properties":{"processId":"geometry.buffer","inputSrid":4326,"bufferDistance":10}}